[
    {
        "zip_code": "10045",
        "city": "New York",
        "state": "NY"
    },
    {
        "zip_code": "10009",
        "city": "New York",
        "state": "NY"
    },
    {
        "zip_code": "10033",
        "city": "New York",
        "state": "NY"
    },
    {
        "zip_code": "10093",
        "city": "New York",
        "state": "NY"
    },
    {
        "zip_code": "10031",
        "city": "New York",
        "state": "NY"
    },
    {
        "zip_code": "10074",
        "city": "New York",
        "state": "NY"
    },
    {
        "zip_code": "10098",
        "city": "New York",
        "state": "NY"
    },
    {
        "zip_code": "10000",
        "city": "New York",
        "state": "NY"
    },
    {
        "zip_code": "10061",
        "city": "New York",
        "state": "NY"
    },
    {
        "zip_code": "10067",
        "city": "New York",
        "state": "NY"
    },
    {
        "zip_code": "10020",
        "city": "New York",
        "state": "NY"
    },
    {
        "zip_code": "10078",
        "city": "New York",
        "state": "NY"
    },
    {
        "zip_code": "10065",
        "city": "New York",
        "state": "NY"
    },
    {
        "zip_code": "10023",
        "city": "New York",
        "state": "NY"
    },
    {
        "zip_code": "10083",
        "city": "New York",
        "state": "NY"
    },
    {
        "zip_code": "10007",
        "city": "New York",
        "state": "NY"
    },
    {
        "zip_code": "10087",
        "city": "New York",
        "state": "NY"
    },
    {
        "zip_code": "10092",
        "city": "New York",
        "state": "NY"
    },
    {
        "zip_code": "10062",
        "city": "New York",
        "state": "NY"
    },
    {
        "zip_code": "10071",
        "city": "New York",
        "state": "NY"
    },
    {
        "zip_code": "10075",
        "city": "New York",
        "state": "NY"
    },
    {
        "zip_code": "10052",
        "city": "New York",
        "state": "NY"
    },
    {
        "zip_code": "10036",
        "city": "New York",
        "state": "NY"
    },
    {
        "zip_code": "10048",
        "city": "New York",
        "state": "NY"
    },
    {
        "zip_code": "10059",
        "city": "New York",
        "state": "NY"
    },
    {
        "zip_code": "10002",
        "city": "New York",
        "state": "NY"
    },
    {
        "zip_code": "10073",
        "city": "New York",
        "state": "NY"
    },
    {
        "zip_code": "10041",
        "city": "New York",
        "state": "NY"
    },
    {
        "zip_code": "10017",
        "city": "New York",
        "state": "NY"
    },
    {
        "zip_code": "10026",
        "city": "New York",
        "state": "NY"
    },
    {
        "zip_code": "10076",
        "city": "New York",
        "state": "NY"
    },
    {
        "zip_code": "10090",
        "city": "New York",
        "state": "NY"
    },
    {
        "zip_code": "10079",
        "city": "New York",
        "state": "NY"
    },
    {
        "zip_code": "10064",
        "city": "New York",
        "state": "NY"
    },
    {
        "zip_code": "10021",
        "city": "New York",
        "state": "NY"
    },
    {
        "zip_code": "10063",
        "city": "New York",
        "state": "NY"
    },
    {
        "zip_code": "10013",
        "city": "New York",
        "state": "NY"
    },
    {
        "zip_code": "10086",
        "city": "New York",
        "state": "NY"
    },
    {
        "zip_code": "10003",
        "city": "New York",
        "state": "NY"
    },
    {
        "zip_code": "10039",
        "city": "New York",
        "state": "NY"
    },
    {
        "zip_code": "10019",
        "city": "New York",
        "state": "NY"
    },
    {
        "zip_code": "10004",
        "city": "New York",
        "state": "NY"
    },
    {
        "zip_code": "10043",
        "city": "New York",
        "state": "NY"
    },
    {
        "zip_code": "10080",
        "city": "New York",
        "state": "NY"
    },
    {
        "zip_code": "10068",
        "city": "New York",
        "state": "NY"
    },
    {
        "zip_code": "10015",
        "city": "New York",
        "state": "NY"
    },
    {
        "zip_code": "10010",
        "city": "New York",
        "state": "NY"
    },
    {
        "zip_code": "10018",
        "city": "New York",
        "state": "NY"
    },
    {
        "zip_code": "10011",
        "city": "New York",
        "state": "NY"
    },
    {
        "zip_code": "10077",
        "city": "New York",
        "state": "NY"
    },
    {
        "zip_code": "10027",
        "city": "New York",
        "state": "NY"
    },
    {
        "zip_code": "10057",
        "city": "New York",
        "state": "NY"
    },
    {
        "zip_code": "10022",
        "city": "New York",
        "state": "NY"
    },
    {
        "zip_code": "10006",
        "city": "New York",
        "state": "NY"
    },
    {
        "zip_code": "10088",
        "city": "New York",
        "state": "NY"
    },
    {
        "zip_code": "10001",
        "city": "New York",
        "state": "NY"
    },
    {
        "zip_code": "10051",
        "city": "New York",
        "state": "NY"
    },
    {
        "zip_code": "10014",
        "city": "New York",
        "state": "NY"
    },
    {
        "zip_code": "10081",
        "city": "New York",
        "state": "NY"
    },
    {
        "zip_code": "10035",
        "city": "New York",
        "state": "NY"
    },
    {
        "zip_code": "10037",
        "city": "New York",
        "state": "NY"
    },
    {
        "zip_code": "10055",
        "city": "New York",
        "state": "NY"
    },
    {
        "zip_code": "10082",
        "city": "New York",
        "state": "NY"
    },
    {
        "zip_code": "10044",
        "city": "New York",
        "state": "NY"
    },
    {
        "zip_code": "10060",
        "city": "New York",
        "state": "NY"
    },
    {
        "zip_code": "10025",
        "city": "New York",
        "state": "NY"
    },
    {
        "zip_code": "10096",
        "city": "New York",
        "state": "NY"
    },
    {
        "zip_code": "10054",
        "city": "New York",
        "state": "NY"
    },
    {
        "zip_code": "10016",
        "city": "New York",
        "state": "NY"
    },
    {
        "zip_code": "10024",
        "city": "New York",
        "state": "NY"
    },
    {
        "zip_code": "10056",
        "city": "New York",
        "state": "NY"
    },
    {
        "zip_code": "10091",
        "city": "New York",
        "state": "NY"
    },
    {
        "zip_code": "10008",
        "city": "New York",
        "state": "NY"
    },
    {
        "zip_code": "10069",
        "city": "New York",
        "state": "NY"
    },
    {
        "zip_code": "10012",
        "city": "New York",
        "state": "NY"
    },
    {
        "zip_code": "10097",
        "city": "New York",
        "state": "NY"
    },
    {
        "zip_code": "10058",
        "city": "New York",
        "state": "NY"
    },
    {
        "zip_code": "10053",
        "city": "New York",
        "state": "NY"
    },
    {
        "zip_code": "10030",
        "city": "New York",
        "state": "NY"
    },
    {
        "zip_code": "10038",
        "city": "New York",
        "state": "NY"
    },
    {
        "zip_code": "10029",
        "city": "New York",
        "state": "NY"
    },
    {
        "zip_code": "10046",
        "city": "New York",
        "state": "NY"
    },
    {
        "zip_code": "10070",
        "city": "New York",
        "state": "NY"
    },
    {
        "zip_code": "10072",
        "city": "New York",
        "state": "NY"
    },
    {
        "zip_code": "10095",
        "city": "New York",
        "state": "NY"
    },
    {
        "zip_code": "10085",
        "city": "New York",
        "state": "NY"
    },
    {
        "zip_code": "10005",
        "city": "New York",
        "state": "NY"
    },
    {
        "zip_code": "10099",
        "city": "New York",
        "state": "NY"
    },
    {
        "zip_code": "10034",
        "city": "New York",
        "state": "NY"
    },
    {
        "zip_code": "10049",
        "city": "New York",
        "state": "NY"
    },
    {
        "zip_code": "10032",
        "city": "New York",
        "state": "NY"
    },
    {
        "zip_code": "10040",
        "city": "New York",
        "state": "NY"
    },
    {
        "zip_code": "10094",
        "city": "New York",
        "state": "NY"
    },
    {
        "zip_code": "10047",
        "city": "New York",
        "state": "NY"
    },
    {
        "zip_code": "10028",
        "city": "New York",
        "state": "NY"
    },
    {
        "zip_code": "10084",
        "city": "New York",
        "state": "NY"
    },
    {
        "zip_code": "10050",
        "city": "New York",
        "state": "NY"
    },
    {
        "zip_code": "10089",
        "city": "New York",
        "state": "NY"
    },
    {
        "zip_code": "10066",
        "city": "New York",
        "state": "NY"
    },
    {
        "zip_code": "10042",
        "city": "New York",
        "state": "NY"
    }
]